$$SOE
2461295.500000000, A.D. 2026-Sep-12 00:00:00.0000, -3.848405737925149E+08, -1.237844095878668E+08, 1.611835367986425E+08,
2461302.500000000, A.D. 2026-Sep-19 00:00:00.0000, -3.841169969707586E+08, -1.330321982512621E+08, 1.596909166992007E+08,
2461309.500000000, A.D. 2026-Sep-26 00:00:00.0000, -3.831695711639733E+08, -1.422024505718084E+08, 1.581052245793079E+08,
2461316.500000000, A.D. 2026-Oct-03 00:00:00.0000, -3.820011009994658E+08, -1.512906608452187E+08, 1.564283140283911E+08,
2461323.500000000, A.D. 2026-Oct-10 00:00:00.0000, -3.806143882207689E+08, -1.602924316211626E+08, 1.546620239161658E+08,
2461330.500000000, A.D. 2026-Oct-17 00:00:00.0000, -3.790122310302335E+08, -1.692034678346824E+08, 1.528081788003765E+08,
2461337.500000000, A.D. 2026-Oct-24 00:00:00.0000, -3.771974236405180E+08, -1.780195712744288E+08, 1.508685893877358E+08,
2461344.500000000, A.D. 2026-Oct-31 00:00:00.0000, -3.751727559215304E+08, -1.867366354442155E+08, 1.488450530281544E+08,
2461351.500000000, A.D. 2026-Nov-07 00:00:00.0000, -3.729410127905234E+08, -1.953506407338944E+08, 1.467393542124868E+08,
2461358.500000000, A.D. 2026-Nov-14 00:00:00.0000, -3.705049731323332E+08, -2.038576490023658E+08, 1.445532651236421E+08,
2461365.500000000, A.D. 2026-Nov-21 00:00:00.0000, -3.678674100501687E+08, -2.122537968815405E+08, 1.422885464590451E+08,
2461372.500000000, A.D. 2026-Nov-28 00:00:00.0000, -3.650310934352385E+08, -2.205352908012834E+08, 1.399469483671843E+08,
2461379.500000000, A.D. 2026-Dec-05 00:00:00.0000, -3.619987912283704E+08, -2.286984043840805E+08, 1.375302111109806E+08,
2461386.500000000, A.D. 2026-Dec-12 00:00:00.0000, -3.587732692020165E+08, -2.367394750895889E+08, 1.350400656953449E+08,
2461393.500000000, A.D. 2026-Dec-19 00:00:00.0000, -3.553572911425281E+08, -2.446549000936936E+08, 1.324782346300891E+08,
2461400.500000000, A.D. 2026-Dec-26 00:00:00.0000, -3.517536195682133E+08, -2.524411322627098E+08, 1.298464327681596E+08,
2461407.500000000, A.D. 2027-Jan-02 00:00:00.0000, -3.479650167022235E+08, -2.600946764075654E+08, 1.271463681770605E+08,
2461414.500000000, A.D. 2027-Jan-09 00:00:00.0000, -3.439942455799977E+08, -2.676120857920607E+08, 1.243797430338133E+08,
2461421.500000000, A.D. 2027-Jan-16 00:00:00.0000, -3.398440712538477E+08, -2.749899588806373E+08, 1.215482545405134E+08,
2461428.500000000, A.D. 2027-Jan-23 00:00:00.0000, -3.355172620474749E+08, -2.822249363597340E+08, 1.186535958526330E+08,
2461435.500000000, A.D. 2027-Jan-30 00:00:00.0000, -3.310165906722813E+08, -2.893136984752536E+08, 1.156974569986471E+08,
2461442.500000000, A.D. 2027-Feb-06 00:00:00.0000, -3.263448347810369E+08, -2.962529623408825E+08, 1.126815257795764E+08,
2461449.500000000, A.D. 2027-Feb-13 00:00:00.0000, -3.215047774196470E+08, -3.030394779919201E+08, 1.096074887898737E+08,
2461456.500000000, A.D. 2027-Feb-20 00:00:00.0000, -3.164992097405927E+08, -3.096700239698042E+08, 1.064770327109249E+08,
2461463.500000000, A.D. 2027-Feb-27 00:00:00.0000, -3.113309345814582E+08, -3.161414056463879E+08, 1.032918454857969E+08,
2461470.500000000, A.D. 2027-Mar-06 00:00:00.0000, -3.060027678902104E+08, -3.224504543618574E+08, 1.000536172554757E+08,
2461477.500000000, A.D. 2027-Mar-13 00:00:00.0000, -3.005175395969992E+08, -3.285940253235840E+08, 9.676404137104668E+07,
2461484.500000000, A.D. 2027-Mar-20 00:00:00.0000, -2.948780950615698E+08, -3.345689950983685E+08, 9.342481551779985E+07,
2461491.500000000, A.D. 2027-Mar-27 00:00:00.0000, -2.890872968952624E+08, -3.403722592461004E+08, 9.003764288914776E+07,
2461498.500000000, A.D. 2027-Apr-03 00:00:00.0000, -2.831480269572702E+08, -3.460007301421742E+08, 8.660423338955829E+07,
2461505.500000000, A.D. 2027-Apr-10 00:00:00.0000, -2.770631884675188E+08, -3.514513349649258E+08, 8.312630486451375E+07,
2461512.500000000, A.D. 2027-Apr-17 00:00:00.0000, -2.708357082178987E+08, -3.567210138612040E+08, 7.960558435576224E+07,
2461519.500000000, A.D. 2027-Apr-24 00:00:00.0000, -2.644685388061832E+08, -3.618067183508949E+08, 7.604380937069497E+07,
2461526.500000000, A.D. 2027-May-01 00:00:00.0000, -2.579646605963977E+08, -3.667054099414986E+08, 7.244272914171772E+07,
2461533.500000000, A.D. 2027-May-08 00:00:00.0000, -2.513270831016894E+08, -3.714140582035284E+08, 6.880410590966231E+07,
2461540.500000000, A.D. 2027-May-15 00:00:00.0000, -2.445588472898013E+08, -3.759296373524282E+08, 6.512971644745870E+07,
2461547.500000000, A.D. 2027-May-22 00:00:00.0000, -2.376630303776741E+08, -3.802491239284204E+08, 6.142135375675346E+07,
2461554.500000000, A.D. 2027-May-29 00:00:00.0000, -2.306427497625077E+08, -3.843694970444688E+08, 5.768082851135610E+07,
2461561.500000000, A.D. 2027-Jun-05 00:00:00.0000, -2.235011652090001E+08, -3.882877380735763E+08, 5.390997042454104E+07,
2461568.500000000, A.D. 2027-Jun-12 00:00:00.0000, -2.162414813051560E+08, -3.920008293464393E+08, 5.011062976194170E+07,
2461575.500000000, A.D. 2027-Jun-19 00:00:00.0000, -2.088669505226035E+08, -3.955057527977313E+08, 4.628467895635918E+07,
2461582.500000000, A.D. 2027-Jun-26 00:00:00.0000, -2.013808766072775E+08, -3.987994888266305E+08, 4.243401427999754E+07,
2461589.500000000, A.D. 2027-Jul-03 00:00:00.0000, -1.937866181742390E+08, -4.018790153688719E+08, 3.856055756533055E+07,
2461596.500000000, A.D. 2027-Jul-10 00:00:00.0000, -1.860875924766231E+08, -4.047413071782807E+08, 3.466625797470631E+07,
2461603.500000000, A.D. 2027-Jul-17 00:00:00.0000, -1.782872793200262E+08, -4.073833353639241E+08, 3.075309381496303E+07,
2461610.500000000, A.D. 2027-Jul-24 00:00:00.0000, -1.703892249739356E+08, -4.098020672533081E+08, 2.682307438023672E+07,
2461617.500000000, A.D. 2027-Jul-31 00:00:00.0000, -1.623970456768742E+08, -4.119944663542945E+08, 2.287824180701816E+07,
2461624.500000000, A.D. 2027-Aug-07 00:00:00.0000, -1.543144309441398E+08, -4.139574912728449E+08, 1.892067305644083E+07,
2461631.500000000, A.D. 2027-Aug-14 00:00:00.0000, -1.461451489870989E+08, -4.156880938491986E+08, 1.495248221645865E+07,
2461638.500000000, A.D. 2027-Aug-21 00:00:00.0000, -1.378930536331723E+08, -4.171832198876700E+08, 1.097582279450560E+07,
2461645.500000000, A.D. 2027-Aug-28 00:00:00.0000, -1.295620893236096E+08, -4.184398112909939E+08, 6.992889786638409E+06,
2461652.500000000, A.D. 2027-Sep-04 00:00:00.0000, -1.211562953796158E+08, -4.194548071125783E+08, 3.005921838277698E+06,
2461659.500000000, A.D. 2027-Sep-11 00:00:00.0000, -1.126798109417624E+08, -4.202251442041407E+08, -9.827964275034666E+05,
2461666.500000000, A.D. 2027-Sep-18 00:00:00.0000, -1.041368804589855E+08, -4.207477581261824E+08, -4.970931977726460E+06,
2461673.500000000, A.D. 2027-Sep-25 00:00:00.0000, -9.553185950757051E+07, -4.210195844178370E+08, -8.956100859083712E+06,
2461680.500000000, A.D. 2027-Oct-02 00:00:00.0000, -8.686922087404490E+07, -4.210375602197840E+08, -1.293586561269251E+07,
2461687.500000000, A.D. 2027-Oct-09 00:00:00.0000, -7.815356088868383E+07, -4.207986262789959E+08, -1.690773261544734E+07,
2461694.500000000, A.D. 2027-Oct-16 00:00:00.0000, -6.938960595648463E+07, -4.202997294171556E+08, -2.086914935756743E+07,
2461701.500000000, A.D. 2027-Oct-23 00:00:00.0000, -6.058221903653120E+07, -4.195378254970279E+08, -2.481750168030548E+07,
2461708.500000000, A.D. 2027-Oct-30 00:00:00.0000, -5.173640570566987E+07, -4.185098823059162E+08, -2.875011095825741E+07,
2461715.500000000, A.D. 2027-Nov-06 00:00:00.0000, -4.285732097903162E+07, -4.172128812583491E+08, -3.266423102751645E+07,
2461722.500000000, A.D. 2027-Nov-13 00:00:00.0000, -3.395027887880415E+07, -4.156438200267279E+08, -3.655704484774309E+07,
2461729.500000000, A.D. 2027-Nov-20 00:00:00.0000, -2.502076185227638E+07, -4.137997183247582E+08, -4.042566134434038E+07,
2461736.500000000, A.D. 2027-Nov-27 00:00:00.0000, -1.607442842440755E+07, -4.116776239268299E+08, -4.426711233971256E+07,
2461743.500000000, A.D. 2027-Dec-04 00:00:00.0000, -7.117121112746715E+06, -4.092746180623580E+08, -4.807834931778005E+07,
2461750.500000000, A.D. 2027-Dec-11 00:00:00.0000, 1.845124840363620E+06, -4.065878212046379E+08, -5.185624005591106E+07,
2461757.500000000, A.D. 2027-Dec-18 00:00:00.0000, 1.080607219054364E+07, -4.036143996513021E+08, -5.559756518443111E+07,
2461764.500000000, A.D. 2027-Dec-25 00:00:00.0000, 1.975927202141111E+07, -4.003515729594845E+08, -5.929901469650981E+07,
2461771.500000000, A.D. 2028-Jan-01 00:00:00.0000, 2.869805372794472E+07, -3.967966222861977E+08, -6.295718442150766E+07,
$$EOE